OBJECT_NAME,OBJECT_ID,EPOCH,MEAN_MOTION,ECCENTRICITY,INCLINATION,RA_OF_ASC_NODE,ARG_OF_PERICENTER,MEAN_ANOMALY,EPHEMERIS_TYPE,CLASSIFICATION_TYPE,NORAD_CAT_ID,ELEMENT_SET_NO,REV_AT_EPOCH,BSTAR,MEAN_MOTION_DOT,MEAN_MOTION_DDOT
IRIDIUM 154,2018-061F,2026-07-08T23:59:06.346464,14.34216725,.00023132,86.3946,47.6840,90.2234,269.9227,0,U,43574,999,41653,.66341235E-4,.206E-5,0
IRIDIUM 163,2018-061G,2026-07-09T12:55:26.374080,14.34216948,.0002166,86.3938,47.3730,84.9052,275.2391,0,U,43575,999,41658,.30343E-4,.105E-5,0
IRIDIUM 156,2018-061H,2026-07-09T00:35:38.417280,14.34217408,.00020616,86.3939,47.5951,90.2486,269.8946,0,U,43576,999,41650,.75052262E-4,.23E-5,0
IRIDIUM 164,2018-061J,2026-07-09T13:31:58.583136,14.34216708,.0002307,86.3941,47.4104,89.7365,270.4095,0,U,43577,999,41662,.36382E-4,.122E-5,0
IRIDIUM 159,2018-061K,2026-07-09T01:03:02.338848,14.34217269,.00021849,86.3939,47.5643,85.5201,274.6245,0,U,43578,999,41651,.44179579E-4,.144E-5,0
IRIDIUM 180,2019-002A,2026-07-09T16:06:31.029408,14.34216744,.0002122,86.3984,344.1979,91.4144,268.7295,0,U,43922,999,39221,-.14865E-4,-.22E-6,0
IRIDIUM 176,2019-002B,2026-07-08T21:48:35.234496,14.72243595,.0002347,86.6104,344.4566,89.0399,271.1087,0,U,43923,999,40244,.84360696E-4,.556E-5,0
IRIDIUM 168,2019-002C,2026-07-08T19:51:46.627200,14.34217854,.00022395,86.3988,344.6280,90.6605,269.4847,0,U,43924,999,39207,.15366033E-4,.63E-6,0
IRIDIUM 173,2019-002D,2026-07-09T17:19:34.771008,14.34218212,.0002196,86.3984,344.1423,91.6733,268.4714,0,U,43925,999,39218,.27388E-4,.96E-6,0
IRIDIUM 169,2019-002E,2026-07-08T22:53:12.845760,14.38613567,.00017252,86.4219,16.0905,97.1413,262.9982,0,U,43926,999,39335,.53599411E-4,.184E-5,0
IRIDIUM 172,2019-002F,2026-07-08T22:45:18.962496,14.34217146,.00021898,86.3982,344.4736,90.6927,269.4520,0,U,43927,999,39208,.77418246E-4,.237E-5,0
IRIDIUM 175,2019-002G,2026-07-09T15:56:49.300800,14.43625391,.0004977,86.4515,281.1259,126.4103,233.7558,0,U,43928,999,40222,.55642E-4,.209E-5,0
IRIDIUM 171,2019-002H,2026-07-09T16:43:02.911872,14.34217563,.0002196,86.3992,344.4693,94.9593,265.1854,0,U,43929,999,39218,.51839E-4,.165E-5,0
IRIDIUM 170,2019-002J,2026-07-09T15:54:05.374080,14.72245014,.0002331,86.6105,344.1437,85.5094,274.6389,0,U,43930,999,40256,.81046E-4,.536E-5,0
IRIDIUM 167,2019-002K,2026-07-09T06:31:06.916512,14.34217510,.00022023,86.3985,344.3610,99.4869,260.6576,0,U,43931,999,39212,.50173364E-4,.16E-5,0
IRIDIUM 181,2023-068S,2026-07-09T16:59:17.090880,14.43310347,.0002446,86.4478,47.3734,84.7248,275.4232,0,U,56726,999,16568,.51732E-4,.194E-5,0
IRIDIUM 177,2023-068T,2026-07-09T07:04:37.887744,14.80023851,.00021391,86.1981,318.2942,92.5299,267.6166,0,U,56727,999,16963,.1015046E-3,.794E-5,0
IRIDIUM 174,2023-068U,2026-07-09T17:14:05.460864,14.72253537,.0002067,86.6113,344.2700,83.5591,276.5861,0,U,56728,999,16933,.83192E-4,.549E-5,0
IRIDIUM 178,2023-068V,2026-07-08T06:28:21.101088,14.80024108,.00022852,86.6533,16.5481,87.2958,272.8525,0,U,56729,999,16948,.71196129E-4,.564E-5,0
IRIDIUM 179,2023-068W,2026-07-09T00:11:38.606208,14.80030703,.00022684,86.6765,25.2837,91.1427,269.0054,0,U,56730,999,16959,.88516058E-4,.695E-5,0
